start=new Date('2022-05-03T00:00:00.000Z').valueOf();
sats=[{"FILE":"3426306","ARG_OF_PERICENTER":"58.5442","MEAN_MOTION_DDOT":"0.0000000000000","ECCENTRICITY":"0.00015550","OBJECT_ID":"2021-038L","CLASSIFICATION_TYPE":"U","BSTAR":"-0.00009942000000","TLE_LINE1":"1 48363U 21038L   22122.66306635 -.00001761  00000-0 -99420-4 0  9997","TIME_SYSTEM":"UTC","OBJECT_NAME":"STARLINK-2626","PERIAPSIS":"546.216","REF_FRAME":"TEME","COUNTRY_CODE":"US","CENTER_NAME":"EARTH","APOAPSIS":"548.370","PERIOD":"95.594","TLE_LINE2":"2 48363  53.0549 193.0059 0001555  58.5442 301.5699 15.06374129 55026","GP_ID":"202555134","SEMIMAJOR_AXIS":"6925.428","MEAN_ELEMENT_THEORY":"SGP4","EPHEMERIS_TYPE":"0","EPOCH":"2022-05-02T15:54:48.932640","MEAN_ANOMALY":"301.5699","LAUNCH_DATE":"2021-05-04","RCS_SIZE":"LARGE","OBJECT_TYPE":"PAYLOAD","NORAD_CAT_ID":"48363","RA_OF_ASC_NODE":"193.0059","SITE":"AFETR","MEAN_MOTION_DOT":"-0.00001761","REV_AT_EPOCH":"5502","DECAY_DATE":null,"ELEMENT_SET_NO":"999","MEAN_MOTION":"15.06374129","INCLINATION":"53.0549"},{"RCS_SIZE":"LARGE","OBJECT_TYPE":"PAYLOAD","NORAD_CAT_ID":"48364","RA_OF_ASC_NODE":"193.3281","SITE":"AFETR","MEAN_MOTION_DOT":"0.00000394","DECAY_DATE":null,"MEAN_MOTION":"15.06401485","REV_AT_EPOCH":"5501","ELEMENT_SET_NO":"999","INCLINATION":"53.0539","APOAPSIS":"548.467","PERIOD":"95.592","TLE_LINE2":"2 48364  53.0539 193.3281 0001817  47.2529 312.8613 15.06401485 55014","GP_ID":"202555384","SEMIMAJOR_AXIS":"6925.344","MEAN_ELEMENT_THEORY":"SGP4","EPHEMERIS_TYPE":"0","EPOCH":"2022-05-02T14:12:35.379360","MEAN_ANOMALY":"312.8613","LAUNCH_DATE":"2021-05-04","TIME_SYSTEM":"UTC","TLE_LINE1":"1 48364U 21038M   22122.59207615  .00000394  00000-0  45323-4 0  9990","OBJECT_NAME":"STARLINK-2611","PERIAPSIS":"545.951","REF_FRAME":"TEME","COUNTRY_CODE":"US","CENTER_NAME":"EARTH","FILE":"3426306","ARG_OF_PERICENTER":"47.2529","MEAN_MOTION_DDOT":"0.0000000000000","ECCENTRICITY":"0.00018170","OBJECT_ID":"2021-038M","CLASSIFICATION_TYPE":"U","BSTAR":"0.00004532300000"},{"OBJECT_NAME":"STARLINK-2608","TLE_LINE1":"1 48365U 21038N   22122.70360578  .00013913  00000-0  95076-3 0  9992","TIME_SYSTEM":"UTC","PERIAPSIS":"545.948","COUNTRY_CODE":"US","REF_FRAME":"TEME","CENTER_NAME":"EARTH","FILE":"3426306","ARG_OF_PERICENTER":"55.3016","OBJECT_ID":"2021-038N","ECCENTRICITY":"0.00017720","MEAN_MOTION_DDOT":"0.0000000000000","BSTAR":"0.00095076000000","CLASSIFICATION_TYPE":"U","NORAD_CAT_ID":"48365","OBJECT_TYPE":"PAYLOAD","RCS_SIZE":"LARGE","RA_OF_ASC_NODE":"192.8378","ELEMENT_SET_NO":"999","DECAY_DATE":null,"REV_AT_EPOCH":"5503","INCLINATION":"53.0531","MEAN_MOTION":"15.06412598","SITE":"AFETR","MEAN_MOTION_DOT":"0.00013913","APOAPSIS":"548.402","GP_ID":"202556634","TLE_LINE2":"2 48365  53.0531 192.8378 0001772  55.3016 304.8140 15.06412598 55034","SEMIMAJOR_AXIS":"6925.310","PERIOD":"95.591","EPOCH":"2022-05-02T16:53:11.539392","EPHEMERIS_TYPE":"0","MEAN_ELEMENT_THEORY":"SGP4","LAUNCH_DATE":"2021-05-04","MEAN_ANOMALY":"304.8140"},{"DECAY_DATE":null,"REV_AT_EPOCH":"5507","INCLINATION":"53.0555","ELEMENT_SET_NO":"999","MEAN_MOTION":"15.06368433","SITE":"AFETR","MEAN_MOTION_DOT":"0.00002009","NORAD_CAT_ID":"48366","OBJECT_TYPE":"PAYLOAD","RCS_SIZE":"LARGE","RA_OF_ASC_NODE":"188.4771","EPHEMERIS_TYPE":"0","EPOCH":"2022-05-02T13:24:13.440096","MEAN_ELEMENT_THEORY":"SGP4","LAUNCH_DATE":"2021-05-04","MEAN_ANOMALY":"296.4405","APOAPSIS":"548.376","TLE_LINE2":"2 48366  53.0555 188.4771 0001539  63.6742 296.4405 15.06368433 55070","SEMIMAJOR_AXIS":"6925.445","GP_ID":"202556880","PERIOD":"95.594","PERIAPSIS":"546.244","REF_FRAME":"TEME","COUNTRY_CODE":"US","CENTER_NAME":"EARTH","OBJECT_NAME":"STARLINK-2631","TIME_SYSTEM":"UTC","TLE_LINE1":"1 48366U 21038P   22122.55848889  .00002009  00000-0  15388-3 0  9994","ECCENTRICITY":"0.00015390","OBJECT_ID":"2021-038P","MEAN_MOTION_DDOT":"0.0000000000000","BSTAR":"0.00015388000000","CLASSIFICATION_TYPE":"U","FILE":"3426306","ARG_OF_PERICENTER":"63.6742"},{"LAUNCH_DATE":"2021-05-04","MEAN_ANOMALY":"307.9373","EPOCH":"2022-05-02T14:54:26.916768","EPHEMERIS_TYPE":"0","MEAN_ELEMENT_THEORY":"SGP4","GP_ID":"202555635","TLE_LINE2":"2 48367  53.0542 188.2074 0001753  52.1775 307.9373 15.06374396 55086","SEMIMAJOR_AXIS":"6925.427","PERIOD":"95.594","APOAPSIS":"548.506","REV_AT_EPOCH":"5508","DECAY_DATE":null,"MEAN_MOTION":"15.06374396","ELEMENT_SET_NO":"999","INCLINATION":"53.0542","MEAN_MOTION_DOT":"0.00000478","SITE":"AFETR","RA_OF_ASC_NODE":"188.2074","NORAD_CAT_ID":"48367","OBJECT_TYPE":"PAYLOAD","RCS_SIZE":"LARGE","BSTAR":"0.00005101800000","CLASSIFICATION_TYPE":"U","OBJECT_ID":"2021-038Q","ECCENTRICITY":"0.00017530","MEAN_MOTION_DDOT":"0.0000000000000","ARG_OF_PERICENTER":"52.1775","FILE":"3426306","REF_FRAME":"TEME","COUNTRY_CODE":"US","CENTER_NAME":"EARTH","PERIAPSIS":"546.078","OBJECT_NAME":"STARLINK-2643","TIME_SYSTEM":"UTC","TLE_LINE1":"1 48367U 21038Q   22122.62114487  .00000478  00000-0  51018-4 0  9992"},{"TLE_LINE1":"1 48368U 21038R   22122.50592894  .00001364  00000-0  11055-3 0  9993","TIME_SYSTEM":"UTC","OBJECT_NAME":"STARLINK-2623","COUNTRY_CODE":"US","REF_FRAME":"TEME","CENTER_NAME":"EARTH","PERIAPSIS":"546.030","ARG_OF_PERICENTER":"47.0211","FILE":"3425830","CLASSIFICATION_TYPE":"U","BSTAR":"0.00011055000000","MEAN_MOTION_DDOT":"0.0000000000000","OBJECT_ID":"2021-038R","ECCENTRICITY":"0.00018180","RA_OF_ASC_NODE":"188.7064","RCS_SIZE":"LARGE","OBJECT_TYPE":"PAYLOAD","NORAD_CAT_ID":"48368","MEAN_MOTION_DOT":"0.00001364","SITE":"AFETR","DECAY_DATE":null,"REV_AT_EPOCH":"5507","INCLINATION":"53.0550","ELEMENT_SET_NO":"999","MEAN_MOTION":"15.06375530","PERIOD":"95.594","TLE_LINE2":"2 48368  53.0550 188.7064 0001818  47.0211 313.0931 15.06375530 55078","SEMIMAJOR_AXIS":"6925.424","GP_ID":"202522214","APOAPSIS":"548.548","MEAN_ANOMALY":"313.0931","LAUNCH_DATE":"2021-05-04","MEAN_ELEMENT_THEORY":"SGP4","EPHEMERIS_TYPE":"0","EPOCH":"2022-05-02T12:08:32.260416"},{"CLASSIFICATION_TYPE":"U","BSTAR":"0.00013161000000","MEAN_MOTION_DDOT":"0.0000000000000","ECCENTRICITY":"0.00018040","OBJECT_ID":"2021-038S","ARG_OF_PERICENTER":"41.1390","FILE":"3426306","COUNTRY_CODE":"US","CENTER_NAME":"EARTH","REF_FRAME":"TEME","PERIAPSIS":"545.989","TLE_LINE1":"1 48369U 21038S   22122.68379977  .00001679  00000-0  13161-3 0  9997","TIME_SYSTEM":"UTC","OBJECT_NAME":"STARLINK-2641","MEAN_ANOMALY":"318.9735","LAUNCH_DATE":"2021-05-04","MEAN_ELEMENT_THEORY":"SGP4","EPHEMERIS_TYPE":"0","EPOCH":"2022-05-02T16:24:40.300128","PERIOD":"95.593","SEMIMAJOR_AXIS":"6925.373","TLE_LINE2":"2 48369  53.0561 187.9141 0001804  41.1390 318.9735 15.06391981 55092","GP_ID":"202556135","APOAPSIS":"548.487","MEAN_MOTION_DOT":"0.00001679","SITE":"AFETR","ELEMENT_SET_NO":"999","DECAY_DATE":null,"REV_AT_EPOCH":"5509","INCLINATION":"53.0561","MEAN_MOTION":"15.06391981","RA_OF_ASC_NODE":"187.9141","RCS_SIZE":"LARGE","OBJECT_TYPE":"PAYLOAD","NORAD_CAT_ID":"48369"},{"OBJECT_NAME":"STARLINK-2621","TLE_LINE1":"1 48370U 21038T   22122.54742547 -.00000518  00000-0 -15883-4 0  9998","TIME_SYSTEM":"UTC","PERIAPSIS":"546.087","COUNTRY_CODE":"US","CENTER_NAME":"EARTH","REF_FRAME":"TEME","FILE":"3426306","ARG_OF_PERICENTER":"46.9423","ECCENTRICITY":"0.00017780","OBJECT_ID":"2021-038T","MEAN_MOTION_DDOT":"0.0000000000000","BSTAR":"-0.00001588300000","CLASSIFICATION_TYPE":"U","OBJECT_TYPE":"PAYLOAD","NORAD_CAT_ID":"48370","RCS_SIZE":"LARGE","RA_OF_ASC_NODE":"188.5289","REV_AT_EPOCH":"5507","DECAY_DATE":null,"INCLINATION":"53.0543","ELEMENT_SET_NO":"999","MEAN_MOTION":"15.06365691","SITE":"AFETR","MEAN_MOTION_DOT":"-0.00000518","APOAPSIS":"548.550","TLE_LINE2":"2 48370  53.0543 188.5289 0001778  46.9423 313.1715 15.06365691 55076","GP_ID":"202556381","SEMIMAJOR_AXIS":"6925.454","PERIOD":"95.594","EPHEMERIS_TYPE":"0","EPOCH":"2022-05-02T13:08:17.560608","MEAN_ELEMENT_THEORY":"SGP4","LAUNCH_DATE":"2021-05-04","MEAN_ANOMALY":"313.1715"},{"ARG_OF_PERICENTER":"54.4672","FILE":"3426306","BSTAR":"0.00012936000000","CLASSIFICATION_TYPE":"U","ECCENTRICITY":"0.00016800","OBJECT_ID":"2021-038U","MEAN_MOTION_DDOT":"0.0000000000000","OBJECT_NAME":"STARLINK-2589","TLE_LINE1":"1 48371U 21038U   22122.61008836  .00001644  00000-0  12936-3 0  9997","TIME_SYSTEM":"UTC","COUNTRY_CODE":"US","CENTER_NAME":"EARTH","REF_FRAME":"TEME","PERIAPSIS":"546.132","GP_ID":"202555135","TLE_LINE2":"2 48371  53.0537 188.2569 0001680  54.4672 305.6474 15.06373270 55081","SEMIMAJOR_AXIS":"6925.430","PERIOD":"95.594","APOAPSIS":"548.459","LAUNCH_DATE":"2021-05-04","MEAN_ANOMALY":"305.6474","EPHEMERIS_TYPE":"0","EPOCH":"2022-05-02T14:38:31.634304","MEAN_ELEMENT_THEORY":"SGP4","RA_OF_ASC_NODE":"188.2569","OBJECT_TYPE":"PAYLOAD","NORAD_CAT_ID":"48371","RCS_SIZE":"LARGE","INCLINATION":"53.0537","DECAY_DATE":null,"REV_AT_EPOCH":"5508","ELEMENT_SET_NO":"999","MEAN_MOTION":"15.06373270","SITE":"AFETR","MEAN_MOTION_DOT":"0.00001644"},{"ARG_OF_PERICENTER":"43.3223","FILE":"3426306","BSTAR":"0.00015152000000","CLASSIFICATION_TYPE":"U","ECCENTRICITY":"0.00020210","OBJECT_ID":"2021-038V","MEAN_MOTION_DDOT":"0.0000000000000","OBJECT_NAME":"STARLINK-2572","TIME_SYSTEM":"UTC","TLE_LINE1":"1 48372U 21038V   22122.67274394  .00001975  00000-0  15152-3 0  9998","REF_FRAME":"TEME","COUNTRY_CODE":"US","CENTER_NAME":"EARTH","PERIAPSIS":"545.869","TLE_LINE2":"2 48372  53.0534 187.9745 0002021  43.3223 316.7925 15.06381929 55095","GP_ID":"202555385","SEMIMAJOR_AXIS":"6925.404","PERIOD":"95.593","APOAPSIS":"548.669","LAUNCH_DATE":"2021-05-04","MEAN_ANOMALY":"316.7925","EPHEMERIS_TYPE":"0","EPOCH":"2022-05-02T16:08:45.076416","MEAN_ELEMENT_THEORY":"SGP4","RA_OF_ASC_NODE":"187.9745","NORAD_CAT_ID":"48372","OBJECT_TYPE":"PAYLOAD","RCS_SIZE":"LARGE","DECAY_DATE":null,"INCLINATION":"53.0534","REV_AT_EPOCH":"5509","ELEMENT_SET_NO":"999","MEAN_MOTION":"15.06381929","MEAN_MOTION_DOT":"0.00001975","SITE":"AFETR"}];
